[{"OBJECT_NAME":"STARLINK-31263","OBJECT_ID":"2024-017G","EPOCH":"2026-03-09T13:33:11.128032","MEAN_MOTION":15.30192685,"ECCENTRICITY":9.65e-5,"INCLINATION":53.1593,"RA_OF_ASC_NODE":194.487,"ARG_OF_PERICENTER":55.701,"MEAN_ANOMALY":304.4082,"EPHEMERIS_TYPE":0,"CLASSIFICATION_TYPE":"U","NORAD_CAT_ID":58832,"ELEMENT_SET_NO":999,"REV_AT_EPOCH":12029,"BSTAR":2.6592e-6,"MEAN_MOTION_DOT":-2.8e-6,"MEAN_MOTION_DDOT":0},{"OBJECT_NAME":"TEVEL2-6","OBJECT_ID":"2025-052F","EPOCH":"2026-03-09T15:35:24.554400","MEAN_MOTION":15.30760889,"ECCENTRICITY":0.0004769,"INCLINATION":97.4016,"RA_OF_ASC_NODE":325.0381,"ARG_OF_PERICENTER":95.6604,"MEAN_ANOMALY":264.5181,"EPHEMERIS_TYPE":0,"CLASSIFICATION_TYPE":"U","NORAD_CAT_ID":63215,"ELEMENT_SET_NO":999,"REV_AT_EPOCH":5486,"BSTAR":0.00070909,"MEAN_MOTION_DOT":0.00021046,"MEAN_MOTION_DDOT":0}]
